start=new Date('2021-10-13T00:00:00.000Z').valueOf();
sats=[{"COUNTRY_CODE":"US","REF_FRAME":"TEME","GP_ID":"186981487","PERIAPSIS":"332.174","TLE_LINE2":"2 47180  53.0518 314.4054 0001043 310.4741  49.6188 15.79141530 49457","CLASSIFICATION_TYPE":"U","ELEMENT_SET_NO":"999","OBJECT_NAME":"STARLINK-1914","LAUNCH_DATE":"2020-11-25","DECAY_DATE":null,"FILE":"3158851","RCS_SIZE":"LARGE","PERIOD":"91.189","ECCENTRICITY":"0.00010430","MEAN_MOTION_DDOT":"0.0000000000000","APOAPSIS":"333.574","SEMIMAJOR_AXIS":"6711.009","MEAN_MOTION":"15.79141530","CENTER_NAME":"EARTH","INCLINATION":"53.0518","OBJECT_ID":"2020-088BL","ARG_OF_PERICENTER":"310.4741","BSTAR":"0.00136040000000","EPOCH":"2021-10-12T12:14:45.695904","TIME_SYSTEM":"UTC","RA_OF_ASC_NODE":"314.4054","MEAN_ELEMENT_THEORY":"SGP4","EPHEMERIS_TYPE":"0","MEAN_MOTION_DOT":"0.00254927","TLE_LINE1":"1 47180U 20088BL  21285.51025111  .00254927  00000-0  13604-2 0  9997","NORAD_CAT_ID":"47180","OBJECT_TYPE":"PAYLOAD","SITE":"AFETR","REV_AT_EPOCH":"4945","MEAN_ANOMALY":"49.6188"},{"COUNTRY_CODE":"US","GP_ID":"186989604","REF_FRAME":"TEME","PERIAPSIS":"546.329","TLE_LINE2":"2 47181  53.0552 305.6887 0001269  92.7302 267.3832 15.06401804 49824","CLASSIFICATION_TYPE":"U","ELEMENT_SET_NO":"999","OBJECT_NAME":"STARLINK-1927","LAUNCH_DATE":"2020-11-25","DECAY_DATE":null,"FILE":"3159118","RCS_SIZE":"LARGE","PERIOD":"95.592","ECCENTRICITY":"0.00012690","MEAN_MOTION_DDOT":"0.0000000000000","APOAPSIS":"548.087","SEMIMAJOR_AXIS":"6925.343","MEAN_MOTION":"15.06401804","CENTER_NAME":"EARTH","INCLINATION":"53.0552","OBJECT_ID":"2020-088BM","ARG_OF_PERICENTER":"92.7302","BSTAR":"0.00004054800000","EPOCH":"2021-10-12T11:14:41.727264","TIME_SYSTEM":"UTC","RA_OF_ASC_NODE":"305.6887","MEAN_ELEMENT_THEORY":"SGP4","EPHEMERIS_TYPE":"0","MEAN_MOTION_DOT":"0.00000323","TLE_LINE1":"1 47181U 20088BM  21285.46853851  .00000323  00000-0  40548-4 0  9990","NORAD_CAT_ID":"47181","OBJECT_TYPE":"PAYLOAD","SITE":"AFETR","MEAN_ANOMALY":"267.3832","REV_AT_EPOCH":"4982"},{"ARG_OF_PERICENTER":"43.8001","CENTER_NAME":"EARTH","OBJECT_ID":"2021-005A","INCLINATION":"53.0519","MEAN_ELEMENT_THEORY":"SGP4","RA_OF_ASC_NODE":"70.9370","MEAN_MOTION_DOT":"0.00072344","TLE_LINE1":"1 47349U 21005A   21285.67342909  .00072344  00000-0  55319-3 0  9999","EPHEMERIS_TYPE":"0","BSTAR":"0.00055319000000","EPOCH":"2021-10-12T16:09:44.273376","TIME_SYSTEM":"UTC","NORAD_CAT_ID":"47349","OBJECT_TYPE":"PAYLOAD","SITE":"AFETR","MEAN_ANOMALY":"316.3105","REV_AT_EPOCH":"4072","REF_FRAME":"TEME","GP_ID":"187014366","PERIAPSIS":"353.777","TLE_LINE2":"2 47349  53.0519  70.9370 0001123  43.8001 316.3105 15.71527288 40729","CLASSIFICATION_TYPE":"U","COUNTRY_CODE":"US","OBJECT_NAME":"STARLINK-1952","DECAY_DATE":null,"LAUNCH_DATE":"2021-01-20","ELEMENT_SET_NO":"999","PERIOD":"91.631","RCS_SIZE":"LARGE","ECCENTRICITY":"0.00011230","MEAN_MOTION_DDOT":"0.0000000000000","FILE":"3159338","SEMIMAJOR_AXIS":"6732.668","MEAN_MOTION":"15.71527288","APOAPSIS":"355.289"},{"GP_ID":"187015116","REF_FRAME":"TEME","CLASSIFICATION_TYPE":"U","TLE_LINE2":"2 47350  53.0554  84.3814 0001250 104.6725 255.4402 15.06405632 40541","PERIAPSIS":"546.331","COUNTRY_CODE":"US","OBJECT_NAME":"STARLINK-2011","DECAY_DATE":null,"LAUNCH_DATE":"2021-01-20","ELEMENT_SET_NO":"999","PERIOD":"95.592","RCS_SIZE":"LARGE","ECCENTRICITY":"0.00012500","MEAN_MOTION_DDOT":"0.0000000000000","FILE":"3159338","SEMIMAJOR_AXIS":"6925.331","MEAN_MOTION":"15.06405632","APOAPSIS":"548.062","ARG_OF_PERICENTER":"104.6725","CENTER_NAME":"EARTH","OBJECT_ID":"2021-005B","INCLINATION":"53.0554","MEAN_ELEMENT_THEORY":"SGP4","RA_OF_ASC_NODE":"84.3814","TLE_LINE1":"1 47350U 21005B   21285.77263498 -.00000250  00000-0  21057-5 0  9999","MEAN_MOTION_DOT":"-0.00000250","EPHEMERIS_TYPE":"0","EPOCH":"2021-10-12T18:32:35.662272","BSTAR":"0.00000210570000","TIME_SYSTEM":"UTC","NORAD_CAT_ID":"47350","OBJECT_TYPE":"PAYLOAD","SITE":"AFETR","REV_AT_EPOCH":"4054","MEAN_ANOMALY":"255.4402"},{"LAUNCH_DATE":"2021-01-20","DECAY_DATE":null,"OBJECT_NAME":"STARLINK-2017","ELEMENT_SET_NO":"999","TLE_LINE2":"2 47351  53.0531  45.3851 0001887  88.8739 271.2466 15.06408446 41722","CLASSIFICATION_TYPE":"U","PERIAPSIS":"545.881","GP_ID":"186991430","REF_FRAME":"TEME","COUNTRY_CODE":"US","SEMIMAJOR_AXIS":"6925.323","MEAN_MOTION":"15.06408446","APOAPSIS":"548.494","ECCENTRICITY":"0.00018870","MEAN_MOTION_DDOT":"0.0000000000000","RCS_SIZE":"LARGE","PERIOD":"95.592","FILE":"3159213","EPHEMERIS_TYPE":"0","TLE_LINE1":"1 47351U 21005C   21285.53672443  .00000265  00000-0  36724-4 0  9999","MEAN_MOTION_DOT":"0.00000265","RA_OF_ASC_NODE":"45.3851","MEAN_ELEMENT_THEORY":"SGP4","TIME_SYSTEM":"UTC","EPOCH":"2021-10-12T12:52:52.990752","BSTAR":"0.00003672400000","ARG_OF_PERICENTER":"88.8739","INCLINATION":"53.0531","OBJECT_ID":"2021-005C","CENTER_NAME":"EARTH","REV_AT_EPOCH":"4172","MEAN_ANOMALY":"271.2466","SITE":"AFETR","OBJECT_TYPE":"PAYLOAD","NORAD_CAT_ID":"47351"},{"PERIOD":"95.592","RCS_SIZE":"LARGE","ECCENTRICITY":"0.00018950","MEAN_MOTION_DDOT":"0.0000000000000","FILE":"3158851","SEMIMAJOR_AXIS":"6925.350","MEAN_MOTION":"15.06399621","APOAPSIS":"548.527","REF_FRAME":"TEME","GP_ID":"186982005","PERIAPSIS":"545.902","TLE_LINE2":"2 47352  53.0550  85.8927 0001895 101.7478 258.3724 15.06399621 40480","CLASSIFICATION_TYPE":"U","COUNTRY_CODE":"US","OBJECT_NAME":"STARLINK-2034","DECAY_DATE":null,"LAUNCH_DATE":"2021-01-20","ELEMENT_SET_NO":"999","NORAD_CAT_ID":"47352","OBJECT_TYPE":"PAYLOAD","SITE":"AFETR","REV_AT_EPOCH":"4048","MEAN_ANOMALY":"258.3724","ARG_OF_PERICENTER":"101.7478","CENTER_NAME":"EARTH","OBJECT_ID":"2021-005D","INCLINATION":"53.0550","MEAN_ELEMENT_THEORY":"SGP4","RA_OF_ASC_NODE":"85.8927","MEAN_MOTION_DOT":"0.00001439","TLE_LINE1":"1 47352U 21005D   21285.42246771  .00001439  00000-0  11547-3 0  9998","EPHEMERIS_TYPE":"0","BSTAR":"0.00011547000000","EPOCH":"2021-10-12T10:08:21.210144","TIME_SYSTEM":"UTC"},{"MEAN_ANOMALY":"240.3413","REV_AT_EPOCH":"4127","SITE":"AFETR","OBJECT_TYPE":"PAYLOAD","NORAD_CAT_ID":"47353","TLE_LINE1":"1 47353U 21005E   21285.51046259  .00002374  00000-0  17819-3 0  9995","MEAN_MOTION_DOT":"0.00002374","EPHEMERIS_TYPE":"0","MEAN_ELEMENT_THEORY":"SGP4","RA_OF_ASC_NODE":"30.4916","TIME_SYSTEM":"UTC","BSTAR":"0.00017819000000","EPOCH":"2021-10-12T12:15:03.967776","ARG_OF_PERICENTER":"119.7723","OBJECT_ID":"2021-005E","INCLINATION":"53.0566","CENTER_NAME":"EARTH","SEMIMAJOR_AXIS":"6925.323","MEAN_MOTION":"15.06408476","APOAPSIS":"548.212","MEAN_MOTION_DDOT":"0.0000000000000","ECCENTRICITY":"0.00014790","PERIOD":"95.592","RCS_SIZE":"LARGE","FILE":"3158851","DECAY_DATE":null,"LAUNCH_DATE":"2021-01-20","OBJECT_NAME":"STARLINK-2045","ELEMENT_SET_NO":"999","PERIAPSIS":"546.163","TLE_LINE2":"2 47353  53.0566  30.4916 0001479 119.7723 240.3413 15.06408476 41275","CLASSIFICATION_TYPE":"U","GP_ID":"186982257","REF_FRAME":"TEME","COUNTRY_CODE":"US"},{"ELEMENT_SET_NO":"999","OBJECT_NAME":"STARLINK-2046","LAUNCH_DATE":"2021-01-20","DECAY_DATE":null,"COUNTRY_CODE":"US","REF_FRAME":"TEME","GP_ID":"187014617","CLASSIFICATION_TYPE":"U","TLE_LINE2":"2 47354  53.0564  49.8558 0001346 100.9380 259.1761 15.06391104 41019","PERIAPSIS":"546.309","APOAPSIS":"548.173","SEMIMAJOR_AXIS":"6925.376","MEAN_MOTION":"15.06391104","FILE":"3159338","RCS_SIZE":"LARGE","PERIOD":"95.593","ECCENTRICITY":"0.00013460","MEAN_MOTION_DDOT":"0.0000000000000","EPOCH":"2021-10-12T15:44:43.660896","BSTAR":"0.00005814300000","TIME_SYSTEM":"UTC","RA_OF_ASC_NODE":"49.8558","MEAN_ELEMENT_THEORY":"SGP4","EPHEMERIS_TYPE":"0","MEAN_MOTION_DOT":"0.00000585","TLE_LINE1":"1 47354U 21005F   21285.65606089  .00000585  00000-0  58143-4 0  9992","CENTER_NAME":"EARTH","INCLINATION":"53.0564","OBJECT_ID":"2021-005F","ARG_OF_PERICENTER":"100.9380","SITE":"AFETR","MEAN_ANOMALY":"259.1761","REV_AT_EPOCH":"4101","NORAD_CAT_ID":"47354","OBJECT_TYPE":"PAYLOAD"},{"MEAN_MOTION":"15.06404893","SEMIMAJOR_AXIS":"6925.334","APOAPSIS":"548.128","MEAN_MOTION_DDOT":"0.0000000000000","ECCENTRICITY":"0.00013420","PERIOD":"95.592","RCS_SIZE":"LARGE","FILE":"3159338","DECAY_DATE":null,"LAUNCH_DATE":"2021-01-20","OBJECT_NAME":"STARLINK-2047","ELEMENT_SET_NO":"999","PERIAPSIS":"546.269","TLE_LINE2":"2 47355  53.0522  34.8218 0001342  95.4260 264.6882 15.06404893 41220","CLASSIFICATION_TYPE":"U","GP_ID":"187015868","REF_FRAME":"TEME","COUNTRY_CODE":"US","MEAN_ANOMALY":"264.6882","REV_AT_EPOCH":"4122","SITE":"AFETR","OBJECT_TYPE":"PAYLOAD","NORAD_CAT_ID":"47355","MEAN_MOTION_DOT":"0.00002365","TLE_LINE1":"1 47355U 21005G   21285.66202897  .00002365  00000-0  17759-3 0  9998","EPHEMERIS_TYPE":"0","MEAN_ELEMENT_THEORY":"SGP4","RA_OF_ASC_NODE":"34.8218","TIME_SYSTEM":"UTC","EPOCH":"2021-10-12T15:53:19.303008","BSTAR":"0.00017759000000","ARG_OF_PERICENTER":"95.4260","OBJECT_ID":"2021-005G","INCLINATION":"53.0522","CENTER_NAME":"EARTH"},{"PERIOD":"95.592","RCS_SIZE":"LARGE","MEAN_MOTION_DDOT":"0.0000000000000","ECCENTRICITY":"0.00015900","FILE":"3159338","MEAN_MOTION":"15.06397845","SEMIMAJOR_AXIS":"6925.355","APOAPSIS":"548.321","GP_ID":"187015619","REF_FRAME":"TEME","TLE_LINE2":"2 47356  53.0556  54.8489 0001590  95.7770 264.3401 15.06397845 40944","PERIAPSIS":"546.119","CLASSIFICATION_TYPE":"U","COUNTRY_CODE":"US","OBJECT_NAME":"STARLINK-2049","DECAY_DATE":null,"LAUNCH_DATE":"2021-01-20","ELEMENT_SET_NO":"999","NORAD_CAT_ID":"47356","OBJECT_TYPE":"PAYLOAD","SITE":"AFETR","MEAN_ANOMALY":"264.3401","REV_AT_EPOCH":"4094","ARG_OF_PERICENTER":"95.7770","CENTER_NAME":"EARTH","OBJECT_ID":"2021-005H","INCLINATION":"53.0556","MEAN_ELEMENT_THEORY":"SGP4","RA_OF_ASC_NODE":"54.8489","MEAN_MOTION_DOT":"-0.00001327","TLE_LINE1":"1 47356U 21005H   21285.65744314 -.00001327  00000-0 -70236-4 0  9992","EPHEMERIS_TYPE":"0","BSTAR":"-0.00007023600000","EPOCH":"2021-10-12T15:46:43.087296","TIME_SYSTEM":"UTC"}];
